ONEWEB-0534             
1 55797U 23029B   26203.15352685 -.00000001  00000+0 -35062-4 0  9999
2 55797  87.9170 267.4990 0002085 101.4225 258.7142 13.20769563165760
ONEWEB-0556             
1 55798U 23029C   26203.16027179  .00000006  00000+0 -17310-4 0  9998
2 55798  87.9163 267.4961 0001469 120.1339 239.9940 13.20771177165761
ONEWEB-0562             
1 55799U 23029D   26203.14679584  .00000014  00000+0  13876-5 0  9992
2 55799  87.9169 267.4801 0001196  92.3156 267.8114 13.20772620165762
ONEWEB-0563             
1 55800U 23029E   26203.14175289  .00000035  00000+0  54535-4 0  9997
2 55800  87.9170 267.5119 0002151 104.7643 255.3729 13.20770303165750
ONEWEB-0564             
1 55801U 23029F   26203.13501651  .00000078  00000+0  15896-3 0  9996
2 55801  87.9166 267.4866 0001679  93.5918 266.5407 13.20772725165766
ONEWEB-0638             
1 55802U 23029G   26203.17888791 -.00000167  00000+0 -48390-3 0  9990
2 55802  87.8950 282.7768 0001545 108.3327 251.7971 13.14504563163990
ONEWEB-0639             
1 55803U 23029H   26203.13507988  .00000071  00000+0  14520-3 0  9993
2 55803  87.9182 298.0171 0002820 114.0301 246.1128 13.19724216163514
ONEWEB-0640             
1 55804U 23029J   26203.18841577 -.00000066  00000+0 -21358-3 0  9997
2 55804  87.8955 282.7656 0001775 118.9319 241.1989 13.14502852164011
ONEWEB-0641             
1 55805U 23029K   26202.52382049  .00000076  00000+0  15752-3 0  9999
2 55805  87.9191 298.1307 0002062 104.5830 255.5532 13.19727738163444
ONEWEB-0642             
1 55806U 23029L   26202.29162828  .00000087  00000+0  18579-3 0  9997
2 55806  87.9183 298.1864 0002805 108.6975 251.4462 13.19726711163407
ONEWEB-0643             
1 55807U 23029M   26203.15829010 -.00000076  00000+0 -23875-3 0  9992
2 55807  87.8954 282.7592 0002713 101.6281 258.5154 13.14502492163983
ONEWEB-0644             
1 55808U 23029N   26203.19669465  .00000012  00000+0 -14658-5 0  9993
2 55808  87.9182 298.0072 0002371 103.3701 256.7696 13.19726172163526
ONEWEB-0645             
1 55809U 23029P   26202.68808836  .00000024  00000+0  27826-4 0  9996
2 55809  87.9182 298.1051 0002169 113.0858 247.0504 13.19726064163454
ONEWEB-0646             
1 55810U 23029Q   26202.70545427 -.00000007  00000+0 -48836-4 0  9992
2 55810  87.9183 298.1025 0002249 101.5450 258.5936 13.19723890163446
ONEWEB-0648             
1 55811U 23029R   26202.28927119  .00000258  00000+0  66058-3 0  9999
2 55811  87.8963 282.9097 0002599 120.2502 239.8886 13.14504080163872
ONEWEB-0649             
1 55812U 23029S   26202.50327327 -.00000007  00000+0 -49045-4 0  9992
2 55812  87.9183 298.1404 0002147 107.1101 253.0267 13.19724408163455
ONEWEB-0650             
1 55813U 23029T   26202.72599093 -.00000023  00000+0 -89407-4 0  9992
2 55813  87.9183 298.0983 0002587 107.5498 252.5918 13.19724381163455
ONEWEB-0652             
1 55814U 23029U   26203.18365641 -.00000105  00000+0 -31734-3 0  9994
2 55814  87.8953 282.7369 0002008  95.9589 264.1770 13.14503368163963
ONEWEB-0653             
1 55815U 23029V   26203.16779778 -.00000209  00000+0 -59701-3 0  9992
2 55815  87.8962 282.7391 0001961  99.5768 260.5584 13.14502234163992
ONEWEB-0654             
1 55816U 23029W   26203.16303902 -.00000119  00000+0 -35619-3 0  9997
2 55816  87.8963 282.7362 0001721  92.5809 267.5518 13.14502304164011
ONEWEB-0656             
1 55817U 23029X   26203.12828655  .00000038  00000+0  62414-4 0  9993
2 55817  87.9176 267.4678 0001777  87.8643 272.2693 13.20770592165766
ONEWEB-0657             
1 55818U 23029Y   26203.17617007  .00000038  00000+0  61822-4 0  9998
2 55818  87.9182 298.0071 0001957  77.6698 282.4654 13.19727114163520
ONEWEB-0658             
1 55819U 23029Z   26203.17141934 -.00000022  00000+0 -88185-4 0  9996
2 55819  87.9192 297.9868 0002395 103.9486 256.1913 13.19726336163531
ONEWEB-0660             
1 55820U 23029AA  26202.68413470  .00000135  00000+0  32900-3 0  9996
2 55820  87.8971 282.8277 0002012 109.0227 251.1121 13.14502521163933
ONEWEB-0661             
1 55821U 23029AB  26203.17572964 -.00000190  00000+0 -54757-3 0  9993
2 55821  87.8949 282.7687 0001907 106.9474 253.1865 13.14503234163989
ONEWEB-0662             
1 55822U 23029AC  26202.52556436  .00000190  00000+0  47924-3 0  9994
2 55822  87.8953 282.9040 0002012 108.2856 251.8493 13.14502309163947
ONEWEB-0663             
1 55823U 23029AD  26203.15936746 -.00000026  00000+0 -95200-4 0  9992
2 55823  87.9181 267.5324 0002274 108.1221 252.0160 13.20871590165765
ONEWEB-0664             
1 55824U 23029AE  26203.19057897  .00000044  00000+0  75238-4 0  9995
2 55824  87.9167 267.5032 0001683 106.7069 253.4250 13.20772778165766
ONEWEB-0665             
1 55825U 23029AF  26203.17256124 -.00000173  00000+0 -50113-3 0  9997
2 55825  87.8950 282.7501 0002137 108.0229 252.1134 13.14502571164002
ONEWEB-0666             
1 55826U 23029AG  26203.18382968  .00000019  00000+0  15385-4 0  9995
2 55826  87.9167 267.4950 0002310  80.2217 279.9177 13.20770332165771
