OBJECT_NAME,OBJECT_ID,EPOCH,MEAN_MOTION,ECCENTRICITY,INCLINATION,RA_OF_ASC_NODE,ARG_OF_PERICENTER,MEAN_ANOMALY,EPHEMERIS_TYPE,CLASSIFICATION_TYPE,NORAD_CAT_ID,ELEMENT_SET_NO,REV_AT_EPOCH,BSTAR,MEAN_MOTION_DOT,MEAN_MOTION_DDOT
ONEWEB-0534,2023-029B,2026-07-22T03:41:04.719840,13.20769563,.00020855,87.9170,267.4990,101.4225,258.7142,0,U,55797,999,16576,-.35061539E-4,-.1E-7,0
ONEWEB-0556,2023-029C,2026-07-22T03:50:47.482656,13.20771177,.00014696,87.9163,267.4961,120.1339,239.9940,0,U,55798,999,16576,-.17310275E-4,.6E-7,0
ONEWEB-0562,2023-029D,2026-07-22T03:31:23.160576,13.20772620,.00011967,87.9169,267.4801,92.3156,267.8114,0,U,55799,999,16576,.1387569E-5,.14E-6,0
ONEWEB-0563,2023-029E,2026-07-22T03:24:07.449696,13.20770303,.00021519,87.9170,267.5119,104.7643,255.3729,0,U,55800,999,16575,.54534514E-4,.35E-6,0
ONEWEB-0564,2023-029F,2026-07-22T03:14:25.426464,13.20772725,.00016791,87.9166,267.4866,93.5918,266.5407,0,U,55801,999,16576,.1589616E-3,.78E-6,0
ONEWEB-0638,2023-029G,2026-07-22T04:17:35.915424,13.14504563,.00015454,87.8950,282.7768,108.3327,251.7971,0,U,55802,999,16399,-.48389842E-3,-.167E-5,0
ONEWEB-0639,2023-029H,2026-07-22T03:14:30.901632,13.19724216,.00028209,87.9182,298.0171,114.0301,246.1128,0,U,55803,999,16351,.14520466E-3,.71E-6,0
ONEWEB-0640,2023-029J,2026-07-22T04:31:19.122528,13.14502852,.00017756,87.8955,282.7656,118.9319,241.1989,0,U,55804,999,16401,-.21358433E-3,-.66E-6,0
ONEWEB-0641,2023-029K,2026-07-21T12:34:18.090336,13.19727738,.00020625,87.9191,298.1307,104.5830,255.5532,0,U,55805,999,16344,.1575205E-3,.76E-6,0
ONEWEB-0642,2023-029L,2026-07-21T06:59:56.683392,13.19726711,.00028057,87.9183,298.1864,108.6975,251.4462,0,U,55806,999,16340,.18578959E-3,.87E-6,0
ONEWEB-0643,2023-029M,2026-07-22T03:47:56.264640,13.14502492,.00027136,87.8954,282.7592,101.6281,258.5154,0,U,55807,999,16398,-.23874837E-3,-.76E-6,0
ONEWEB-0644,2023-029N,2026-07-22T04:43:14.417760,13.19726172,.0002371,87.9182,298.0072,103.3701,256.7696,0,U,55808,999,16352,-.1465796E-5,.12E-6,0
ONEWEB-0645,2023-029P,2026-07-21T16:30:50.834304,13.19726064,.00021691,87.9182,298.1051,113.0858,247.0504,0,U,55809,999,16345,.27826032E-4,.24E-6,0
ONEWEB-0646,2023-029Q,2026-07-21T16:55:51.248928,13.19723890,.00022496,87.9183,298.1025,101.5450,258.5936,0,U,55810,999,16344,-.48835587E-4,-.7E-7,0
ONEWEB-0648,2023-029R,2026-07-21T06:56:33.030816,13.14504080,.00025995,87.8963,282.9097,120.2502,239.8886,0,U,55811,999,16387,.6605815E-3,.258E-5,0
ONEWEB-0649,2023-029S,2026-07-21T12:04:42.810528,13.19724408,.00021479,87.9183,298.1404,107.1101,253.0267,0,U,55812,999,16345,-.49044577E-4,-.7E-7,0
ONEWEB-0650,2023-029T,2026-07-21T17:25:25.616352,13.19724381,.00025875,87.9183,298.0983,107.5498,252.5918,0,U,55813,999,16345,-.89407191E-4,-.23E-6,0
ONEWEB-0652,2023-029U,2026-07-22T04:24:27.913824,13.14503368,.00020083,87.8953,282.7369,95.9589,264.1770,0,U,55814,999,16396,-.31734287E-3,-.105E-5,0
ONEWEB-0653,2023-029V,2026-07-22T04:01:37.728192,13.14502234,.00019612,87.8962,282.7391,99.5768,260.5584,0,U,55815,999,16399,-.59701424E-3,-.209E-5,0
ONEWEB-0654,2023-029W,2026-07-22T03:54:46.571328,13.14502304,.00017215,87.8963,282.7362,92.5809,267.5518,0,U,55816,999,16401,-.3561933E-3,-.119E-5,0
ONEWEB-0656,2023-029X,2026-07-22T03:04:43.957920,13.20770592,.00017773,87.9176,267.4678,87.8643,272.2693,0,U,55817,999,16576,.62413737E-4,.38E-6,0
ONEWEB-0657,2023-029Y,2026-07-22T04:13:41.094048,13.19727114,.00019579,87.9182,298.0071,77.6698,282.4654,0,U,55818,999,16352,.61822107E-4,.38E-6,0
ONEWEB-0658,2023-029Z,2026-07-22T04:06:50.630976,13.19726336,.00023952,87.9192,297.9868,103.9486,256.1913,0,U,55819,999,16353,-.88184721E-4,-.22E-6,0
ONEWEB-0660,2023-029AA,2026-07-21T16:25:09.238080,13.14502521,.00020128,87.8971,282.8277,109.0227,251.1121,0,U,55820,999,16393,.32900406E-3,.135E-5,0
ONEWEB-0661,2023-029AB,2026-07-22T04:13:03.040896,13.14503234,.00019071,87.8949,282.7687,106.9474,253.1865,0,U,55821,999,16398,-.54756563E-3,-.19E-5,0
ONEWEB-0662,2023-029AC,2026-07-21T12:36:48.760704,13.14502309,.00020126,87.8953,282.9040,108.2856,251.8493,0,U,55822,999,16394,.47924152E-3,.19E-5,0
ONEWEB-0663,2023-029AD,2026-07-22T03:49:29.348544,13.20871590,.00022746,87.9181,267.5324,108.1221,252.0160,0,U,55823,999,16576,-.9520037E-4,-.26E-6,0
ONEWEB-0664,2023-029AE,2026-07-22T04:34:26.023008,13.20772778,.00016839,87.9167,267.5032,106.7069,253.4250,0,U,55824,999,16576,.75237747E-4,.44E-6,0
ONEWEB-0665,2023-029AF,2026-07-22T04:08:29.291136,13.14502571,.00021373,87.8950,282.7501,108.0229,252.1134,0,U,55825,999,16400,-.501129E-3,-.173E-5,0
ONEWEB-0666,2023-029AG,2026-07-22T04:24:42.884352,13.20770332,.00023107,87.9167,267.4950,80.2217,279.9177,0,U,55826,999,16577,.15384548E-4,.19E-6,0
